COUNTY_NAME_COMMON,MUNICIPALITY_NAME_COMMON,MUNICIPALITY_NAME_NJ-1040,MUNICIPALITY_CODE_NJ-1040,MUNICIPALITY_NAME_DCA,MUNICIPALITY_CODE_DCA,MUNICIPALITY_NAME_GNIS,MUNICIPALITY_CODE_GNIS,MUNICIPALITY_CODE_FIPS
Atlantic County,Absecon,Absecon City,0101,Absecon City,0101,City of Absecon,885134,3400100100
Atlantic County,Atlantic City,Atlantic City,0102,Atlantic City City,0102,City of Atlantic City,885142,3400102080
Atlantic County,Brigantine,Brigantine City,0103,Brigantine City,0103,City of Brigantine,885171,3400107810
Atlantic County,Buena Borough,Buena Borough,0104,Buena Borough,0104,Borough of Buena,885173,3400108680
Atlantic County,Buena Vista Township,Buena Vista Township,0105,Buena Vista Township,0105,Township of Buena Vista,882048,3400108710
Atlantic County,Corbin City,Corbin City,0106,Corbin City,0106,City of Corbin City,885192,3400115160
Atlantic County,Egg Harbor City,Egg Harbor City,0107,Egg Harbor City,0107,City of Egg Harbor City,885204,3400120350
Atlantic County,Egg Harbor Township,Egg Harbor Township,0108,Egg Harbor Township,0108,Township of Egg Harbor,882051,3400120290
Atlantic County,Estell Manor,Estell Manor City,0109,Estell Manor City,0109,City of Estell Manor,885212,3400121870
Atlantic County,Folsom Borough,Folsom Borough,0110,Folsom Borough,0110,Borough of Folsom,885222,3400123940
Atlantic County,Galloway Township,Galloway Township,0111,Galloway Township,0111,Township of Galloway,882052,3400125560
Atlantic County,Hamilton Township,Hamilton Township,0112,Hamilton Township,0112,Township of Hamilton,882049,3400129280
Atlantic County,Hammonton,Hammonton Town,0113,Hammonton Town,0113,Town of Hammonton,885242,3400129430
Atlantic County,Linwood,Linwood City,0114,Linwood City,0114,City of Linwood,885280,3400140530
Atlantic County,Longport Borough,Longport Borough,0115,Longport Borough,0115,Borough of Longport,885286,3400141370
Atlantic County,Margate City,Margate City,0116,Margate City,0116,City of Margate City,885292,3400143890
Atlantic County,Mullica Township,Mullica Township,0117,Mullica Township,0117,Township of Mullica,882053,3400149410
Atlantic County,Northfield,Northfield City,0118,Northfield City,0118,City of Northfield,885324,3400152950
Atlantic County,Pleasantville,Pleasantville City,0119,Pleasantville City,0119,City of Pleasantville,885356,3400159640
Atlantic County,Port Republic,Port Republic City,0120,Port Republic City,0120,City of Port Republic,885360,3400160600
Atlantic County,Somers Point,Somers Point City,0121,Somers Point City,0121,City of Somers Point,885397,3400168430
Atlantic County,Ventnor City,Ventnor City,0122,Ventnor City,0122,City of Ventnor City,885426,3400175620
Atlantic County,Weymouth Township,Weymouth Township,0123,Weymouth Township,0123,Township of Weymouth,882050,3400180330
Bergen County,Allendale Borough,Allendale Borough,0201,Allendale Borough,0201,Borough of Allendale,885135,3400300700
Bergen County,Alpine Borough,Alpine Borough,0202,Alpine Borough,0202,Borough of Alpine,885139,3400301090
Bergen County,Bergenfield Borough,Bergenfield Borough,0203,Bergenfield Borough,0203,Borough of Bergenfield,885157,3400305170
Bergen County,Bogota Borough,Bogota Borough,0204,Bogota Borough,0204,Borough of Bogota,885163,3400306490
Bergen County,Carlstadt Borough,Carlstadt Borough,0205,Carlstadt Borough,0205,Borough of Carlstadt,885180,3400310480
Bergen County,Cliffside Park Borough,Cliffside Park Borough,0206,Cliffside Park Borough,0206,Borough of Cliffside Park,885187,3400313570
Bergen County,Closter Borough,Closter Borough,0207,Closter Borough,0207,Borough of Closter,885190,3400313810
Bergen County,Cresskill Borough,Cresskill Borough,0208,Cresskill Borough,0208,Borough of Cresskill,885193,3400315820
Bergen County,Demarest Borough,Demarest Borough,0209,Demarest Borough,0209,Borough of Demarest,885195,3400317530
Bergen County,Dumont Borough,Dumont Borough,0210,Dumont Borough,0210,Borough of Dumont,885197,3400318400
Bergen County,East Rutherford Borough,East Rutherford Borough,0212,East Rutherford Borough,0212,Borough of East Rutherford,885201,3400319510
Bergen County,Edgewater Borough,Edgewater Borough,0213,Edgewater Borough,0213,Borough of Edgewater,885203,3400320020
Bergen County,Elmwood Park Borough,Elmwood Park Borough,0211,Elmwood Park Borough,0211,Borough of Elmwood Park,885207,3400321300
Bergen County,Emerson Borough,Emerson Borough,0214,Emerson Borough,0214,Borough of Emerson,885208,3400321450
Bergen County,Englewood,Englewood City,0215,Englewood City,0215,City of Englewood,885209,3400321480
Bergen County,Englewood Cliffs Borough,Englewood Cliffs Borough,0216,Englewood Cliffs Borough,0216,Borough of Englewood Cliffs,885210,3400321510
Bergen County,Fair Lawn Borough,Fair Lawn Borough,0217,Fair Lawn Borough,0217,Borough of Fair Lawn,885214,3400322470
Bergen County,Fairview Borough,Fairview Borough,0218,Fairview Borough,0218,Borough of Fairview,885215,3400322560
Bergen County,Fort Lee Borough,Fort Lee Borough,0219,Fort Lee Borough,0219,Borough of Fort Lee,885223,3400324420
Bergen County,Franklin Lakes Borough,Franklin Lakes Borough,0220,Franklin Lakes Borough,0220,Borough of Franklin Lakes,885225,3400324990
Bergen County,Garfield,Garfield City,0221,Garfield City,0221,City of Garfield,885228,3400325770
Bergen County,Glen Rock Borough,Glen Rock Borough,0222,Glen Rock Borough,0222,Borough of Glen Rock,885233,3400326640
Bergen County,Hackensack,Hackensack City,0223,Hackensack City,0223,City of Hackensack,885236,3400328680
Bergen County,Harrington Park Borough,Harrington Park Borough,0224,Harrington Park Borough,0224,Borough of Harrington Park,885244,3400330150
Bergen County,Hasbrouck Heights Borough,Hasbrouck Heights Borough,0225,Hasbrouck Heights Borough,0225,Borough of Hasbrouck Heights,885247,3400330420
Bergen County,Haworth Borough,Haworth Borough,0226,Haworth Borough,0226,Borough of Haworth,885248,3400330540
Bergen County,Hillsdale Borough,Hillsdale Borough,0227,Hillsdale Borough,0227,Borough of Hillsdale,885255,3400331920
Bergen County,Ho-Ho-Kus Borough,Ho-Ho-Kus Borough,0228,Ho-Ho-Kus Borough,0228,Borough of Ho-Ho-Kus,885258,3400332310
Bergen County,Leonia Borough,Leonia Borough,0229,Leonia Borough,0229,Borough of Leonia,885276,3400340020
Bergen County,Little Ferry Borough,Little Ferry Borough,0230,Little Ferry Borough,0230,Borough of Little Ferry,885281,3400340680
Bergen County,Lodi Borough,Lodi Borough,0231,Lodi Borough,0231,Borough of Lodi,885284,3400341100
Bergen County,Lyndhurst Township,Lyndhurst Township,0232,Lyndhurst Township,0232,Township of Lyndhurst,882225,3400342090
Bergen County,Mahwah Township,Mahwah Township,0233,Mahwah Township,0233,Township of Mahwah,882312,3400342750
Bergen County,Maywood Borough,Maywood Borough,0234,Maywood Borough,0234,Borough of Maywood,885294,3400344880
Bergen County,Midland Park Borough,Midland Park Borough,0235,Midland Park Borough,0235,Borough of Midland Park,885300,3400346110
Bergen County,Montvale Borough,Montvale Borough,0236,Montvale Borough,0236,Borough of Montvale,885306,3400347610
Bergen County,Moonachie Borough,Moonachie Borough,0237,Moonachie Borough,0237,Borough of Moonachie,885307,3400347700
Bergen County,New Milford Borough,New Milford Borough,0238,New Milford Borough,0238,Borough of New Milford,885320,3400351660
Bergen County,North Arlington Borough,North Arlington Borough,0239,North Arlington Borough,0239,Borough of North Arlington,885323,3400352320
Bergen County,Northvale Borough,Northvale Borough,0240,Northvale Borough,0240,Borough of Northvale,885327,3400353430
Bergen County,Norwood Borough,Norwood Borough,0241,Norwood Borough,0241,Borough of Norwood,885329,3400353610
Bergen County,Oakland Borough,Oakland Borough,0242,Oakland Borough,0242,Borough of Oakland,885330,3400353850
Bergen County,Old Tappan Borough,Old Tappan Borough,0243,Old Tappan Borough,0243,Borough of Old Tappan,885336,3400354870
Bergen County,Oradell Borough,Oradell Borough,0244,Oradell Borough,0244,Borough of Oradell,885337,3400354990
Bergen County,Palisades Park Borough,Palisades Park Borough,0245,Palisades Park Borough,0245,Borough of Palisades Park,885338,3400355770
Bergen County,Paramus Borough,Paramus Borough,0246,Paramus Borough,0246,Borough of Paramus,885340,3400355950
Bergen County,Park Ridge Borough,Park Ridge Borough,0247,Park Ridge Borough,0247,Borough of Park Ridge,885341,3400356130
Bergen County,Ramsey Borough,Ramsey Borough,0248,Ramsey Borough,0248,Borough of Ramsey,885364,3400361680
Bergen County,Ridgefield Borough,Ridgefield Borough,0249,Ridgefield Borough,0249,Borough of Ridgefield,885367,3400362910
Bergen County,Ridgefield Park Village,Ridgefield Park Village,0250,Ridgefield Park Village,0250,Village of Ridgefield Park,885368,3400362940
Bergen County,Ridgewood Village,Ridgewood Village,0251,Ridgewood Village,0251,Village of Ridgewood,885369,3400363000
Bergen County,River Edge Borough,River Edge Borough,0252,River Edge Borough,0252,Borough of River Edge,885372,3400363360
Bergen County,River Vale Township,River Vale Township,0253,River Vale Township,0253,Township of River Vale,882310,3400363690
Bergen County,Rochelle Park Township,Rochelle Park Township,0254,Rochelle Park Township,0254,Township of Rochelle Park,882307,3400363990
Bergen County,Rockleigh Borough,Rockleigh Borough,0255,Rockleigh Borough,0255,Borough of Rockleigh,885375,3400364170
Bergen County,Rutherford Borough,Rutherford Borough,0256,Rutherford Borough,0256,Borough of Rutherford,885383,3400365280
Bergen County,Saddle Brook Township,Saddle Brook Township,0257,Saddle Brook Township,0257,Township of Saddle Brook,882308,3400365340
Bergen County,Saddle River Borough,Saddle River Borough,0258,Saddle River Borough,0258,Borough of Saddle River,885384,3400365400
Bergen County,South Hackensack Township,South Hackensack Township,0259,South Hackensack Township,0259,Township of South Hackensack,882226,3400368970
Bergen County,Teaneck Township,Teaneck Township,0260,Teaneck Township,0260,Township of Teaneck,882227,3400372360
Bergen County,Tenafly Borough,Tenafly Borough,0261,Tenafly Borough,0261,Borough of Tenafly,885417,3400372420
Bergen County,Teterboro Borough,Teterboro Borough,0262,Teterboro Borough,0262,Borough of Teterboro,885418,3400372480
Bergen County,Upper Saddle River Borough,Upper Saddle River Borough,0263,Upper Saddle River Borough,0263,Borough of Upper Saddle River,885425,3400375140
Bergen County,Waldwick Borough,Waldwick Borough,0264,Waldwick Borough,0264,Borough of Waldwick,885429,3400376400
Bergen County,Wallington Borough,Wallington Borough,0265,Wallington Borough,0265,Borough of Wallington,885430,3400376490
Bergen County,Washington Township,Washington Township,0266,Washington Township,0266,Township of Washington,882311,3400377135
Bergen County,Westwood Borough,Westwood Borough,0267,Westwood Borough,0267,Borough of Westwood,885442,3400380270
Bergen County,Woodcliff Lake Borough,Woodcliff Lake Borough,0268,Woodcliff Lake Borough,0268,Borough of Woodcliff Lake,885449,3400382300
Bergen County,Wood-Ridge Borough,Wood-Ridge Borough,0269,Wood-Ridge Borough,0269,Borough of Wood-Ridge,885451,3400382570
Bergen County,Wyckoff Township,Wyckoff Township,0270,Wyckoff Township,0270,Township of Wyckoff,882309,3400383050
Burlington County,Bass River Township,Bass River Township,0301,Bass River Township,0301,Township of Bass River,882086,3400503370
Burlington County,Beverly,Beverly City,0302,Beverly City,0302,City of Beverly,885160,3400505740
Burlington County,Bordentown,Bordentown City,0303,Bordentown City,0303,City of Bordentown,885165,3400506670
Burlington County,Bordentown Township,Bordentown Township,0304,Bordentown Township,0304,Township of Bordentown,882110,3400506700
Burlington County,Burlington,Burlington City,0305,Burlington City,0305,City of Burlington,885174,3400508920
Burlington County,Burlington Township,Burlington Township,0306,Burlington Township,0306,Township of Burlington,882102,3400508950
Burlington County,Chesterfield Township,Chesterfield Township,0307,Chesterfield Township,0307,Township of Chesterfield,882109,3400512670
Burlington County,Cinnaminson Township,Cinnaminson Township,0308,Cinnaminson Township,0308,Township of Cinnaminson,882096,3400512940
Burlington County,Delanco Township,Delanco Township,0309,Delanco Township,0309,Township of Delanco,882100,3400517080
Burlington County,Delran Township,Delran Township,0310,Delran Township,0310,Township of Delran,882097,3400517440
Burlington County,Eastampton Township,Eastampton Township,0311,Eastampton Township,0311,Township of Eastampton,882105,3400518790
Burlington County,Edgewater Park Township,Edgewater Park Township,0312,Edgewater Park Township,0312,Township of Edgewater Park,882101,3400520050
Burlington County,Evesham Township,Evesham Township,0313,Evesham Township,0313,Township of Evesham,882082,3400522110
Burlington County,Fieldsboro Borough,Fieldsboro Borough,0314,Fieldsboro Borough,0314,Borough of Fieldsboro,885219,3400523250
Burlington County,Florence Township,Florence Township,0315,Florence Township,0315,Township of Florence,882107,3400523850
Burlington County,Hainesport Township,Hainesport Township,0316,Hainesport Township,0316,Township of Hainesport,882092,3400529010
Burlington County,Lumberton Township,Lumberton Township,0317,Lumberton Township,0317,Township of Lumberton,882091,3400542060
Burlington County,Mansfield Township,Mansfield Township,0318,Mansfield Township,0318,Township of Mansfield,882108,3400543290
Burlington County,Maple Shade Township,Maple Shade Township,0319,Maple Shade Township,0319,Township of Maple Shade,882094,3400543740
Burlington County,Medford Lakes Borough,Medford Lakes Borough,0321,Medford Lakes Borough,0321,Borough of Medford Lakes,885295,3400545210
Burlington County,Medford Township,Medford Township,0320,Medford Township,0320,Township of Medford,882083,3400545120
Burlington County,Moorestown Township,Moorestown Township,0322,Moorestown Township,0322,Township of Moorestown,882095,3400547880
Burlington County,Mount Holly Township,Mount Holly Township,0323,Mount Holly Township,0323,Township of Mount Holly,882104,3400548900
Burlington County,Mount Laurel Township,Mount Laurel Township,0324,Mount Laurel Township,0324,Township of Mount Laurel,882093,3400549020
Burlington County,New Hanover Township,New Hanover Township,0325,New Hanover Township,0325,Township of New Hanover,882088,3400551510
Burlington County,North Hanover Township,North Hanover Township,0326,North Hanover Township,0326,Township of North Hanover,882087,3400553070
Burlington County,Palmyra Borough,Palmyra Borough,0327,Palmyra Borough,0327,Borough of Palmyra,885339,3400555800
Burlington County,Pemberton Borough,Pemberton Borough,0328,Pemberton Borough,0328,Borough of Pemberton,885346,3400557480
Burlington County,Pemberton Township,Pemberton Township,0329,Pemberton Township,0329,Township of Pemberton,882089,3400557510
Burlington County,Riverside Township,Riverside Township,0330,Riverside Township,0330,Township of Riverside,882098,3400563510
Burlington County,Riverton Borough,Riverton Borough,0331,Riverton Borough,0331,Borough of Riverton,885373,3400563660
Burlington County,Shamong Township,Shamong Township,0332,Shamong Township,0332,Township of Shamong,882084,3400566810
Burlington County,Southampton Township,Southampton Township,0333,Southampton Township,0333,Township of Southampton,882090,3400568610
Burlington County,Springfield Township,Springfield Township,0334,Springfield Township,0334,Township of Springfield,882106,3400569990
Burlington County,Tabernacle Township,Tabernacle Township,0335,Tabernacle Township,0335,Township of Tabernacle,882081,3400572060
Burlington County,Washington Township,Washington Township,0336,Washington Township,0336,Township of Washington,882085,3400577150
Burlington County,Westampton Township,Westampton Township,0337,Westampton Township,0337,Township of Westampton,882103,3400578200
Burlington County,Willingboro Township,Willingboro Township,0338,Willingboro Township,0338,Township of Willingboro,882099,3400581440
Burlington County,Woodland Township,Woodland Township,0339,Woodland Township,0339,Township of Woodland,882080,3400582420
Burlington County,Wrightstown Borough,Wrightstown Borough,0340,Wrightstown Borough,0340,Borough of Wrightstown,885453,3400582960
Camden County,Audubon Borough,Audubon Borough,0401,Audubon Borough,0401,Borough of Audubon,885144,3400702200
Sussex County,Fredon Township,Fredon Township,1907,Fredon Township,1907,Township of Fredon,882268,3403725140
Camden County,Audubon Park Borough,Audubon Park Borough,0402,Audubon Park Borough,0402,Borough of Audubon Park,885145,3400702230
Camden County,Barrington Borough,Barrington Borough,0403,Barrington Borough,0403,Borough of Barrington,885149,3400703250
Camden County,Bellmawr Borough,Bellmawr Borough,0404,Bellmawr Borough,0404,Borough of Bellmawr,885154,3400704750
Camden County,Berlin Borough,Berlin Borough,0405,Berlin Borough,0405,Borough of Berlin,885158,3400705440
Camden County,Berlin Township,Berlin Township,0406,Berlin Township,0406,Township of Berlin,882152,3400705470
Camden County,Brooklawn Borough,Brooklawn Borough,0407,Brooklawn Borough,0407,Borough of Brooklawn,885172,3400708170
Camden County,Camden,Camden City,0408,Camden City,0408,City of Camden,885177,3400710000
Camden County,Cherry Hill Township,Cherry Hill Township,0409,Cherry Hill Township,0409,Township of Cherry Hill,882155,3400712280
Camden County,Chesilhurst Borough,Chesilhurst Borough,0410,Chesilhurst Borough,0410,Borough of Chesilhurst,885183,3400712550
Camden County,Clementon Borough,Clementon Borough,0411,Clementon Borough,0411,Borough of Clementon,885186,3400713420
Camden County,Collingswood Borough,Collingswood Borough,0412,Collingswood Borough,0412,Borough of Collingswood,885191,3400714260
Camden County,Gibbsboro Borough,Gibbsboro Borough,0413,Gibbsboro Borough,0413,Borough of Gibbsboro,885230,3400726070
Camden County,Gloucester City,Gloucester City,0414,Gloucester City City,0414,City of Gloucester City,885234,3400726820
Camden County,Gloucester Township,Gloucester Township,0415,Gloucester Township,0415,Township of Gloucester,882154,3400726760
Camden County,Haddon Heights Borough,Haddon Heights Borough,0418,Haddon Heights Borough,0418,Borough of Haddon Heights,885239,3400728800
Camden County,Haddon Township,Haddon Township,0416,Haddon Township,0416,Township of Haddon,882156,3400728740
Camden County,Haddonfield Borough,Haddonfield Borough,0417,Haddonfield Borough,0417,Borough of Haddonfield,885238,3400728770
Camden County,Hi-Nella Borough,Hi-Nella Borough,0419,Hi-nella Borough,0419,Borough of Hi-Nella,885256,3400732220
Camden County,Laurel Springs Borough,Laurel Springs Borough,0420,Laurel Springs Borough,0420,Borough of Laurel Springs,885272,3400739210
Camden County,Lawnside Borough,Lawnside Borough,0421,Lawnside Borough,0421,Borough of Lawnside,885274,3400739420
Camden County,Lindenwold Borough,Lindenwold Borough,0422,Lindenwold Borough,0422,Borough of Lindenwold,885279,3400740440
Camden County,Magnolia Borough,Magnolia Borough,0423,Magnolia Borough,0423,Borough of Magnolia,885288,3400742630
Camden County,Merchantville Borough,Merchantville Borough,0424,Merchantville Borough,0424,Borough of Merchantville,885297,3400745510
Camden County,Mount Ephraim Borough,Mount Ephraim Borough,0425,Mount Ephraim Borough,0425,Borough of Mount Ephraim,885313,3400748750
Camden County,Oaklyn Borough,Oaklyn Borough,0426,Oaklyn Borough,0426,Borough of Oaklyn,885331,3400753880
Camden County,Pennsauken Township,Pennsauken Township,0427,Pennsauken Township,0427,Township of Pennsauken,882157,3400757660
Camden County,Pine Hill Borough,Pine Hill Borough,0428,Pine Hill Borough,0428,Borough of Pine Hill,885352,3400758770
Camden County,Runnemede Borough,Runnemede Borough,0430,Runnemede Borough,0430,Borough of Runnemede,885382,3400765160
Camden County,Somerdale Borough,Somerdale Borough,0431,Somerdale Borough,0431,Borough of Somerdale,885396,3400768340
Camden County,Stratford Borough,Stratford Borough,0432,Stratford Borough,0432,Borough of Stratford,885411,3400771220
Camden County,Tavistock Borough,Tavistock Borough,0433,Tavistock Borough,0433,Borough of Tavistock,885416,3400772240
Camden County,Voorhees Township,Voorhees Township,0434,Voorhees Township,0434,Township of Voorhees,882153,3400776220
Camden County,Waterford Township,Waterford Township,0435,Waterford Township,0435,Township of Waterford,882151,3400777630
Camden County,Winslow Township,Winslow Township,0436,Winslow Township,0436,Township of Winslow,882150,3400781740
Camden County,Woodlynne Borough,Woodlynne Borough,0437,Woodlynne Borough,0437,Borough of Woodlynne,885450,3400782450
Cape May County,Avalon Borough,Avalon Borough,0501,Avalon Borough,0501,Borough of Avalon,885146,3400902320
Cape May County,Cape May,Cape May City,0502,Cape May City,0502,City of Cape May,885178,3400910270
Cape May County,Cape May Point Borough,Cape May Point Borough,0503,Cape May Point Borough,0503,Borough of Cape May Point,885179,3400910330
Cape May County,Dennis Township,Dennis Township,0504,Dennis Township,0504,Township of Dennis,882046,3400917560
Cape May County,Lower Township,Lower Township,0505,Lower Township,0505,Township of Lower,882044,3400941610
Cape May County,Middle Township,Middle Township,0506,Middle Township,0506,Township of Middle,882045,3400945810
Cape May County,North Wildwood,North Wildwood City,0507,North Wildwood City,0507,City of North Wildwood,885328,3400953490
Cape May County,Ocean City,Ocean City,0508,Ocean City City,0508,City of Ocean City,885332,3400954360
Cape May County,Sea Isle City,Sea Isle City,0509,Sea Isle City,0509,City of Sea Isle City,885389,3400966390
Cape May County,Stone Harbor Borough,Stone Harbor Borough,0510,Stone Harbor Borough,0510,Borough of Stone Harbor,885410,3400971010
Cape May County,Upper Township,Upper Township,0511,Upper Township,0511,Township of Upper,882047,3400974810
Cape May County,West Cape May Borough,West Cape May Borough,0512,West Cape May Borough,0512,Borough of West Cape May,885435,3400978530
Cape May County,West Wildwood Borough,West Wildwood Borough,0513,West Wildwood Borough,0513,Borough of West Wildwood,885441,3400980210
Cape May County,Wildwood,Wildwood City,0514,Wildwood City,0514,City of Wildwood,885444,3400981170
Cape May County,Wildwood Crest Borough,Wildwood Crest Borough,0515,Wildwood Crest Borough,0515,Borough of Wildwood Crest,885445,3400981200
Cape May County,Woodbine Borough,Woodbine Borough,0516,Woodbine Borough,0516,Borough of Woodbine,885446,3400981890
Cumberland County,Bridgeton,Bridgeton City,0601,Bridgeton City,0601,City of Bridgeton,885169,3401107600
Cumberland County,Commercial Township,Commercial Township,0602,Commercial Township,0602,Township of Commercial,882062,3401114710
Cumberland County,Deerfield Township,Deerfield Township,0603,Deerfield Township,0603,Township of Deerfield,882054,3401116900
Cumberland County,Downe Township,Downe Township,0604,Downe Township,0604,Township of Downe,882061,3401118220
Cumberland County,Fairfield Township,Fairfield Township,0605,Fairfield Township,0605,Township of Fairfield,882059,3401122350
Cumberland County,Greenwich Township,Greenwich Township,0606,Greenwich Township,0606,Township of Greenwich,882058,3401128170
Cumberland County,Hopewell Township,Hopewell Township,0607,Hopewell Township,0607,Township of Hopewell,882056,3401133120
Cumberland County,Lawrence Township,Lawrence Township,0608,Lawrence Township,0608,Township of Lawrence,882060,3401139450
Cumberland County,Maurice River Township,Maurice River Township,0609,Maurice River Township,0609,Township of Maurice River,882063,3401144580
Cumberland County,Millville,Millville City,0610,Millville City,0610,City of Millville,885304,3401146680
Cumberland County,Shiloh Borough,Shiloh Borough,0611,Shiloh Borough,0611,Borough of Shiloh,885393,3401167020
Cumberland County,Stow Creek Township,Stow Creek Township,0612,Stow Creek Township,0612,Township of Stow Creek,882057,3401171160
Cumberland County,Upper Deerfield Township,Upper Deerfield Township,0613,Upper Deerfield Township,0613,Township of Upper Deerfield,882055,3401174870
Cumberland County,Vineland,Vineland City,0614,Vineland City,0614,City of Vineland,885428,3401176070
Essex County,Belleville Township,Belleville Township,0701,Belleville Township,0701,Township of Belleville,1729713,3401304695
Essex County,Bloomfield Township,Bloomfield Township,0702,Bloomfield Township,0702,Township of Bloomfield,1729714,3401306260
Essex County,Caldwell Borough,Caldwell Borough,0703,Caldwell Borough,0703,Borough of Caldwell,2381010,3401309250
Essex County,Cedar Grove Township,Cedar Grove Township,0704,Cedar Grove Township,0704,Township of Cedar Grove,882222,3401311200
Essex County,City of Orange Township,City of Orange Township,0717,City of Orange Township,0717,Township of City of Orange,1729742,3401313045
Essex County,East Orange,East Orange City,0705,East Orange City,0705,City of East Orange,885200,3401319390
Essex County,Essex Fells Borough,Essex Fells Borough,0706,Essex Fells Borough,0706,Borough of Essex Fells,2390558,3401321840
Essex County,Fairfield Township,Fairfield Township,0707,Fairfield Township,0707,Township of Fairfield,1729722,3401322385
Essex County,Glen Ridge Borough,Glen Ridge Borough,0708,Glen Ridge Borough,0708,Borough of Glen Ridge,2390559,3401326610
Essex County,Irvington Township,Irvington Township,0709,Irvington Township,0709,Township of Irvington,877363,3401334450
Essex County,Livingston Township,Livingston Township,0710,Livingston Township,0710,Township of Livingston,882219,3401340890
Essex County,Maplewood Township,Maplewood Township,0711,Maplewood Township,0711,Township of Maplewood,882220,3401343800
Essex County,Millburn Township,Millburn Township,0712,Millburn Township,0712,Township of Millburn,882221,3401346380
Essex County,Montclair Township,Montclair Township,0713,Montclair Township,0713,Township of Montclair,1729720,3401347500
Essex County,Newark,Newark City,0714,Newark City,0714,City of Newark,885317,3401351000
Essex County,North Caldwell Borough,North Caldwell Borough,0715,North Caldwell Borough,0715,Borough of North Caldwell,878839,3401352620
Essex County,Nutley Township,Nutley Township,0716,Nutley Township,0716,Township of Nutley,1729715,3401353680
Essex County,Roseland Borough,Roseland Borough,0718,Roseland Borough,0718,Borough of Roseland,885378,3401364590
Essex County,South Orange Village Township,South Orange Village Township,0719,South Orange Village Township,0719,Township of South Orange Village,880741,3401369274
Essex County,Verona Township,Verona Township,0720,Verona Township,0720,Township of Verona,1729716,3401375815
Essex County,West Caldwell Township,West Caldwell Township,0721,West Caldwell Township,0721,Township of West Caldwell,1729717,3401378510
Essex County,West Orange Township,West Orange Township,0722,West Orange Township,0722,Township of West Orange,1729718,3401379800
Gloucester County,Clayton Borough,Clayton Borough,0801,Clayton Borough,0801,Borough of Clayton,885185,3401513360
Gloucester County,Deptford Township,Deptford Township,0802,Deptford Township,0802,Township of Deptford,882149,3401517710
Gloucester County,East Greenwich Township,East Greenwich Township,0803,East Greenwich Township,0803,Township of East Greenwich,882141,3401519180
Gloucester County,Elk Township,Elk Township,0804,Elk Township,0804,Township of Elk,882139,3401521060
Gloucester County,Franklin Township,Franklin Township,0805,Franklin Township,0805,Township of Franklin,882138,3401524840
Gloucester County,Glassboro Borough,Glassboro Borough,0806,Glassboro Borough,0806,Borough of Glassboro,885231,3401526340
Gloucester County,Greenwich Township,Greenwich Township,0807,Greenwich Township,0807,Township of Greenwich,882142,3401528185
Gloucester County,Harrison Township,Harrison Township,0808,Harrison Township,0808,Township of Harrison,882146,3401530180
Gloucester County,Logan Township,Logan Township,0809,Logan Township,0809,Township of Logan,882143,3401541160
Gloucester County,Mantua Township,Mantua Township,0810,Mantua Township,0810,Township of Mantua,882147,3401543440
Gloucester County,Monroe Township,Monroe Township,0811,Monroe Township,0811,Township of Monroe,882137,3401547250
Gloucester County,National Park Borough,National Park Borough,0812,National Park Borough,0812,Borough of National Park,885314,3401549680
Gloucester County,Newfield Borough,Newfield Borough,0813,Newfield Borough,0813,Borough of Newfield,885319,3401551390
Gloucester County,Paulsboro Borough,Paulsboro Borough,0814,Paulsboro Borough,0814,Borough of Paulsboro,885344,3401557150
Gloucester County,Pitman Borough,Pitman Borough,0815,Pitman Borough,0815,Borough of Pitman,885354,3401559070
Gloucester County,South Harrison Township,South Harrison Township,0816,South Harrison Township,0816,Township of South Harrison,882145,3401569030
Gloucester County,Swedesboro Borough,Swedesboro Borough,0817,Swedesboro Borough,0817,Borough of Swedesboro,885415,3401571850
Gloucester County,Washington Township,Washington Township,0818,Washington Township,0818,Township of Washington,882140,3401577180
Gloucester County,Wenonah Borough,Wenonah Borough,0819,Wenonah Borough,0819,Borough of Wenonah,885434,3401578110
Gloucester County,West Deptford Township,West Deptford Township,0820,West Deptford Township,0820,Township of West Deptford,882148,3401578800
Gloucester County,Westville Borough,Westville Borough,0821,Westville Borough,0821,Borough of Westville,885440,3401580120
Gloucester County,Woodbury,Woodbury City,0822,Woodbury City,0822,City of Woodbury,885447,3401582120
Gloucester County,Woodbury Heights Borough,Woodbury Heights Borough,0823,Woodbury Heights Borough,0823,Borough of Woodbury Heights,885448,3401582180
Gloucester County,Woolwich Township,Woolwich Township,0824,Woolwich Township,0824,Township of Woolwich,882144,3401582840
Hudson County,Bayonne,Bayonne City,0901,Bayonne City,0901,City of Bayonne,885151,3401703580
Hudson County,East Newark Borough,East Newark Borough,0902,East Newark Borough,0902,Borough of East Newark,885199,3401719360
Hudson County,Guttenberg,Guttenberg Town,0903,Guttenberg Town,0903,Town of Guttenberg,885235,3401728650
Hudson County,Harrison,Harrison Town,0904,Harrison Town,0904,Town of Harrison,885245,3401730210
Hudson County,Hoboken,Hoboken City,0905,Hoboken City,0905,City of Hoboken,885257,3401732250
Hudson County,Jersey City,Jersey City,0906,Jersey City City,0906,City of Jersey City,885264,3401736000
Hudson County,Kearny,Kearny Town,0907,Kearny Town,0907,Town of Kearny,885266,3401736510
Hudson County,North Bergen Township,North Bergen Township,0908,North Bergen Township,0908,Township of North Bergen,882223,3401752470
Hudson County,Secaucus,Secaucus Town,0909,Secaucus Town,0909,Town of Secaucus,885392,3401766570
Hudson County,Union City,Union City,0910,Union City City,0910,City of Union City,885424,3401774630
Hudson County,Weehawken Township,Weehawken Township,0911,Weehawken Township,0911,Township of Weehawken,882224,3401777930
Hudson County,West New York,West New York Town,0912,West New York Town,0912,Town of West New York,885438,3401779610
Hunterdon County,Alexandria Township,Alexandria Township,1001,Alexandria Township,1001,Township of Alexandria,882186,3401900550
Hunterdon County,Bethlehem Township,Bethlehem Township,1002,Bethlehem Township,1002,Township of Bethlehem,882189,3401905650
Hunterdon County,Bloomsbury Borough,Bloomsbury Borough,1003,Bloomsbury Borough,1003,Borough of Bloomsbury,885162,3401906370
Hunterdon County,Califon Borough,Califon Borough,1004,Califon Borough,1004,Borough of Califon,885176,3401909280
Hunterdon County,Clinton,Clinton Town,1005,Clinton Town,1005,Town of Clinton,885189,3401913720
Hunterdon County,Clinton Township,Clinton Township,1006,Clinton Township,1006,Township of Clinton,882177,3401913750
Hunterdon County,Delaware Township,Delaware Township,1007,Delaware Township,1007,Township of Delaware,882182,3401917170
Hunterdon County,East Amwell Township,East Amwell Township,1008,East Amwell Township,1008,Township of East Amwell,882180,3401918820
Hunterdon County,Flemington Borough,Flemington Borough,1009,Flemington Borough,1009,Borough of Flemington,885220,3401923700
Hunterdon County,Franklin Township,Franklin Township,1010,Franklin Township,1010,Township of Franklin,882184,3401924870
Hunterdon County,Frenchtown Borough,Frenchtown Borough,1011,Frenchtown Borough,1011,Borough of Frenchtown,885227,3401925350
Hunterdon County,Glen Gardner Borough,Glen Gardner Borough,1012,Glen Gardner Borough,1012,Borough of Glen Gardner,885232,3401926550
Hunterdon County,Hampton Borough,Hampton Borough,1013,Hampton Borough,1013,Borough of Hampton,885243,3401929460
Hunterdon County,High Bridge Borough,High Bridge Borough,1014,High Bridge Borough,1014,Borough of High Bridge,885251,3401931320
Hunterdon County,Holland Township,Holland Township,1015,Holland Township,1015,Township of Holland,882185,3401932460
Hunterdon County,Kingwood Township,Kingwood Township,1016,Kingwood Township,1016,Township of Kingwood,882183,3401937065
Hunterdon County,Lambertville,Lambertville City,1017,Lambertville City,1017,City of Lambertville,885271,3401938610
Hunterdon County,Lebanon Borough,Lebanon Borough,1018,Lebanon Borough,1018,Borough of Lebanon,885275,3401939630
Hunterdon County,Lebanon Township,Lebanon Township,1019,Lebanon Township,1019,Township of Lebanon,882191,3401939660
Hunterdon County,Milford Borough,Milford Borough,1020,Milford Borough,1020,Borough of Milford,885301,3401946260
Hunterdon County,Raritan Township,Raritan Township,1021,Raritan Township,1021,Township of Raritan,882179,3401961920
Hunterdon County,Readington Township,Readington Township,1022,Readington Township,1022,Township of Readington,882178,3401962250
Hunterdon County,Stockton Borough,Stockton Borough,1023,Stockton Borough,1023,Borough of Stockton,885409,3401970980
Hunterdon County,Tewksbury Township,Tewksbury Township,1024,Tewksbury Township,1024,Township of Tewksbury,882190,3401972510
Hunterdon County,Union Township,Union Township,1025,Union Township,1025,Township of Union,882188,3401974420
Hunterdon County,West Amwell Township,West Amwell Township,1026,West Amwell Township,1026,Township of West Amwell,882181,3401978230
Mercer County,East Windsor Township,East Windsor Township,1101,East Windsor Township,1101,Township of East Windsor,882123,3402119780
Mercer County,Ewing Township,Ewing Township,1102,Ewing Township,1102,Township of Ewing,882128,3402122185
Mercer County,Hamilton Township,Hamilton Township,1103,Hamilton Township,1103,Township of Hamilton,882127,3402129310
Mercer County,Hightstown Borough,Hightstown Borough,1104,Hightstown Borough,1104,Borough of Hightstown,885254,3402131620
Mercer County,Hopewell Borough,Hopewell Borough,1105,Hopewell Borough,1105,Borough of Hopewell,885260,3402133150
Mercer County,Hopewell Township,Hopewell Township,1106,Hopewell Township,1106,Township of Hopewell,882129,3402133180
Mercer County,Lawrence Township,Lawrence Township,1107,Lawrence Township,1107,Township of Lawrence,882126,3402139510
Mercer County,Pennington Borough,Pennington Borough,1108,Pennington Borough,1108,Borough of Pennington,885347,3402157600
Mercer County,Princeton,Princeton,1114,Princeton,1114,Princeton,2743608,3402160900
Mercer County,Robbinsville Township,Robbinsville Township,1112,Robbinsville Township,1112,Township of Robbinsville,882122,3402163850
Mercer County,Trenton,Trenton City,1111,Trenton City,1111,City of Trenton,885421,3402174000
Mercer County,West Windsor Township,West Windsor Township,1113,West Windsor Township,1113,Township of West Windsor,882124,3402180240
Middlesex County,Carteret Borough,Carteret Borough,1201,Carteret Borough,1201,Borough of Carteret,885181,3402310750
Middlesex County,Cranbury Township,Cranbury Township,1202,Cranbury Township,1202,Township of Cranbury,882160,3402315550
Middlesex County,Dunellen Borough,Dunellen Borough,1203,Dunellen Borough,1203,Borough of Dunellen,885198,3402318490
Middlesex County,East Brunswick Township,East Brunswick Township,1204,East Brunswick Township,1204,Township of East Brunswick,882163,3402319000
Middlesex County,Edison Township,Edison Township,1205,Edison Township,1205,Township of Edison,882166,3402320230
Middlesex County,Helmetta Borough,Helmetta Borough,1206,Helmetta Borough,1206,Borough of Helmetta,885250,3402330840
Middlesex County,Highland Park Borough,Highland Park Borough,1207,Highland Park Borough,1207,Borough of Highland Park,885252,3402331470
Middlesex County,Jamesburg Borough,Jamesburg Borough,1208,Jamesburg Borough,1208,Borough of Jamesburg,885263,3402334890
Middlesex County,Metuchen Borough,Metuchen Borough,1209,Metuchen Borough,1210,Borough of Metuchen,885298,3402345690
Middlesex County,Middlesex Borough,Middlesex Borough,1210,Middlesex Borough,1211,Borough of Middlesex,885299,3402345900
Middlesex County,Milltown Borough,Milltown Borough,1211,Milltown Borough,1212,Borough of Milltown,885303,3402346620
Middlesex County,Monroe Township,Monroe Township,1212,Monroe Township,1213,Township of Monroe,882159,3402347280
Middlesex County,New Brunswick,New Brunswick City,1213,New Brunswick City,1214,City of New Brunswick,885318,3402351210
Middlesex County,North Brunswick Township,North Brunswick Township,1214,North Brunswick Township,1215,Township of North Brunswick,882164,3402352560
Middlesex County,Old Bridge Township,Old Bridge Township,1215,Old Bridge Township,1209,Township of Old Bridge,882158,3402354705
Middlesex County,Perth Amboy,Perth Amboy City,1216,Perth Amboy City,1216,City of Perth Amboy,885349,3402358200
Middlesex County,Piscataway Township,Piscataway Township,1217,Piscataway Township,1217,Township of Piscataway,882167,3402359010
Middlesex County,Plainsboro Township,Plainsboro Township,1218,Plainsboro Township,1218,Township of Plainsboro,882161,3402359280
Middlesex County,Sayreville Borough,Sayreville Borough,1219,Sayreville Borough,1219,Borough of Sayreville,885386,3402365790
Middlesex County,South Amboy,South Amboy City,1220,South Amboy City,1220,City of South Amboy,885399,3402368550
Middlesex County,South Brunswick Township,South Brunswick Township,1221,South Brunswick Township,1221,Township of South Brunswick,882162,3402368790
Middlesex County,South Plainfield Borough,South Plainfield Borough,1222,South Plainfield Borough,1222,Borough of South Plainfield,885402,3402369390
Middlesex County,South River Borough,South River Borough,1223,South River Borough,1223,Borough of South River,885403,3402369420
Middlesex County,Spotswood Borough,Spotswood Borough,1224,Spotswood Borough,1224,Borough of Spotswood,885405,3402369810
Middlesex County,Woodbridge Township,Woodbridge Township,1225,Woodbridge Township,1225,Township of Woodbridge,882165,3402382000
Monmouth County,Aberdeen Township,Aberdeen Township,1301,Aberdeen Township,1330,Township of Aberdeen,882121,3402500070
Monmouth County,Allenhurst Borough,Allenhurst Borough,1302,Allenhurst Borough,1301,Borough of Allenhurst,885136,3402500730
Monmouth County,Allentown Borough,Allentown Borough,1303,Allentown Borough,1302,Borough of Allentown,885137,3402500760
Monmouth County,Asbury Park,Asbury Park City,1304,Asbury Park City,1303,City of Asbury Park,885141,3402501960
Monmouth County,Atlantic Highlands Borough,Atlantic Highlands Borough,1305,Atlantic Highlands Borough,1304,Borough of Atlantic Highlands,885143,3402502110
Monmouth County,Avon-by-the-Sea Borough,Avon-by-the-Sea Borough,1306,Avon-by-the-Sea Borough,1305,Borough of Avon-by-the-Sea,885147,3402502440
Monmouth County,Belmar Borough,Belmar Borough,1307,Belmar Borough,1306,Borough of Belmar,885155,3402504930
Monmouth County,Bradley Beach Borough,Bradley Beach Borough,1308,Bradley Beach Borough,1307,Borough of Bradley Beach,885167,3402506970
Monmouth County,Brielle Borough,Brielle Borough,1309,Brielle Borough,1308,Borough of Brielle,885170,3402507750
Monmouth County,Colts Neck Township,Colts Neck Township,1310,Colts Neck Township,1309,Township of Colts Neck,882602,3402514560
Monmouth County,Deal Borough,Deal Borough,1311,Deal Borough,1310,Borough of Deal,885194,3402516660
Monmouth County,Eatontown Borough,Eatontown Borough,1312,Eatontown Borough,1311,Borough of Eatontown,885202,3402519840
Monmouth County,Englishtown Borough,Englishtown Borough,1313,Englishtown Borough,1312,Borough of Englishtown,885211,3402521570
Monmouth County,Fair Haven Borough,Fair Haven Borough,1314,Fair Haven Borough,1313,Borough of Fair Haven,885213,3402522440
Monmouth County,Farmingdale Borough,Farmingdale Borough,1315,Farmingdale Borough,1314,Borough of Farmingdale,885218,3402522950
Monmouth County,Freehold Borough,Freehold Borough,1316,Freehold Borough,1315,Borough of Freehold,885226,3402525200
Monmouth County,Freehold Township,Freehold Township,1317,Freehold Township,1316,Township of Freehold,882116,3402525230
Monmouth County,Hazlet Township,Hazlet Township,1318,Hazlet Township,1339,Township of Hazlet,882120,3402530690
Monmouth County,Highlands Borough,Highlands Borough,1319,Highlands Borough,1317,Borough of Highlands,885253,3402531500
Monmouth County,Holmdel Township,Holmdel Township,1320,Holmdel Township,1318,Township of Holmdel,882119,3402532640
Monmouth County,Howell Township,Howell Township,1321,Howell Township,1319,Township of Howell,882113,3402533300
Monmouth County,Interlaken Borough,Interlaken Borough,1322,Interlaken Borough,1320,Borough of Interlaken,885261,3402534200
Monmouth County,Keansburg Borough,Keansburg Borough,1323,Keansburg Borough,1321,Borough of Keansburg,885265,3402536480
Monmouth County,Keyport Borough,Keyport Borough,1324,Keyport Borough,1322,Borough of Keyport,885268,3402536810
Monmouth County,Lake Como Borough,Lake Como Borough,1346,Lake Como Borough,1347,Borough of Lake Como,885400,3402537560
Monmouth County,Little Silver Borough,Little Silver Borough,1325,Little Silver Borough,1323,Borough of Little Silver,885282,3402540770
Monmouth County,Loch Arbour Village,Loch Arbour Village,1326,Loch Arbour Village,1324,Village of Loch Arbour,885283,3402541010
Monmouth County,Long Branch,Long Branch City,1327,Long Branch City,1325,City of Long Branch,885285,3402541310
Monmouth County,Manalapan Township,Manalapan Township,1328,Manalapan Township,1326,Township of Manalapan,882117,3402542990
Monmouth County,Manasquan Borough,Manasquan Borough,1329,Manasquan Borough,1327,Borough of Manasquan,885289,3402543050
Monmouth County,Marlboro Township,Marlboro Township,1330,Marlboro Township,1328,Township of Marlboro,882118,3402544070
Monmouth County,Matawan Borough,Matawan Borough,1331,Matawan Borough,1329,Borough of Matawan,885293,3402544520
Monmouth County,Middletown Township,Middletown Township,1332,Middletown Township,1331,Township of Middletown,882604,3402545990
Monmouth County,Millstone Township,Millstone Township,1333,Millstone Township,1332,Township of Millstone,882115,3402546560
Monmouth County,Monmouth Beach Borough,Monmouth Beach Borough,1334,Monmouth Beach Borough,1333,Borough of Monmouth Beach,885305,3402547130
Monmouth County,Neptune City Borough,Neptune City Borough,1336,Neptune City Borough,1335,Borough of Neptune City,885315,3402549920
Monmouth County,Neptune Township,Neptune Township,1335,Neptune Township,1334,Township of Neptune,882111,3402549890
Monmouth County,Ocean Township,Ocean Township,1337,Ocean Township,1337,Township of Ocean,882601,3402554270
Monmouth County,Oceanport Borough,Oceanport Borough,1338,Oceanport Borough,1338,Borough of Oceanport,885334,3402554570
Monmouth County,Red Bank Borough,Red Bank Borough,1339,Red Bank Borough,1340,Borough of Red Bank,885366,3402562430
Monmouth County,Roosevelt Borough,Roosevelt Borough,1340,Roosevelt Borough,1341,Borough of Roosevelt,885377,3402564410
Monmouth County,Rumson Borough,Rumson Borough,1341,Rumson Borough,1342,Borough of Rumson,885381,3402565130
Monmouth County,Sea Bright Borough,Sea Bright Borough,1342,Sea Bright Borough,1343,Borough of Sea Bright,885387,3402566240
Monmouth County,Sea Girt Borough,Sea Girt Borough,1343,Sea Girt Borough,1344,Borough of Sea Girt,885388,3402566330
Monmouth County,Shrewsbury Borough,Shrewsbury Borough,1344,Shrewsbury Borough,1345,Borough of Shrewsbury,885395,3402567350
Monmouth County,Shrewsbury Township,Shrewsbury Township,1345,Shrewsbury Township,1346,Township of Shrewsbury,882603,3402567365
Monmouth County,Spring Lake Borough,Spring Lake Borough,1347,Spring Lake Borough,1348,Borough of Spring Lake,885406,3402570110
Monmouth County,Spring Lake Heights Borough,Spring Lake Heights Borough,1348,Spring Lake Heights Borough,1349,Borough of Spring Lake Heights,885407,3402570140
Monmouth County,Tinton Falls Borough,Tinton Falls Borough,1349,Tinton Falls Borough,1336,Borough of Tinton Falls,885419,3402573020
Monmouth County,Union Beach Borough,Union Beach Borough,1350,Union Beach Borough,1350,Borough of Union Beach,885423,3402574540
Monmouth County,Upper Freehold Township,Upper Freehold Township,1351,Upper Freehold Township,1351,Township of Upper Freehold,882114,3402574900
Monmouth County,Wall Township,Wall Township,1352,Wall Township,1352,Township of Wall,882112,3402576460
Monmouth County,West Long Branch Borough,West Long Branch Borough,1353,West Long Branch Borough,1353,Borough of West Long Branch,885437,3402579310
Morris County,Boonton,Boonton Town,1401,Boonton Town,1401,Town of Boonton,885164,3402706610
Morris County,Boonton Township,Boonton Township,1402,Boonton Township,1402,Township of Boonton,882205,3402706640
Morris County,Butler Borough,Butler Borough,1403,Butler Borough,1403,Borough of Butler,885175,3402709040
Morris County,Chatham Borough,Chatham Borough,1404,Chatham Borough,1404,Borough of Chatham,885182,3402712100
Morris County,Chatham Township,Chatham Township,1405,Chatham Township,1405,Township of Chatham,882194,3402712130
Morris County,Chester Borough,Chester Borough,1406,Chester Borough,1406,Borough of Chester,885184,3402712580
Morris County,Chester Township,Chester Township,1407,Chester Township,1407,Township of Chester,882199,3402712610
Morris County,Denville Township,Denville Township,1408,Denville Township,1408,Township of Denville,882204,3402717650
Morris County,Dover,Dover Town,1409,Dover Town,1409,Town of Dover,885196,3402718070
Morris County,East Hanover Township,East Hanover Township,1410,East Hanover Township,1410,Township of East Hanover,882192,3402719210
Morris County,Florham Park Borough,Florham Park Borough,1411,Florham Park Borough,1411,Borough of Florham Park,885221,3402723910
Morris County,Hanover Township,Hanover Township,1412,Hanover Township,1412,Township of Hanover,882187,3402729550
Morris County,Harding Township,Harding Township,1413,Harding Township,1413,Township of Harding,882195,3402729700
Morris County,Jefferson Township,Jefferson Township,1414,Jefferson Township,1414,Township of Jefferson,882210,3402734980
Morris County,Kinnelon Borough,Kinnelon Borough,1415,Kinnelon Borough,1415,Borough of Kinnelon,885269,3402737110
Morris County,Lincoln Park Borough,Lincoln Park Borough,1416,Lincoln Park Borough,1416,Borough of Lincoln Park,885277,3402740290
Morris County,Long Hill Township,Long Hill Township,1430,Long Hill Township,1430,Township of Long Hill,882196,3402741362
Morris County,Madison Borough,Madison Borough,1417,Madison Borough,1417,Borough of Madison,885287,3402742510
Morris County,Mendham Borough,Mendham Borough,1418,Mendham Borough,1418,Borough of Mendham,885296,3402745330
Morris County,Mendham Township,Mendham Township,1419,Mendham Township,1419,Township of Mendham,882200,3402745360
Morris County,Mine Hill Township,Mine Hill Township,1420,Mine Hill Township,1420,Township of Mine Hill,882202,3402746860
Morris County,Montville Township,Montville Township,1421,Montville Township,1421,Township of Montville,882207,3402747670
Morris County,Morris Plains Borough,Morris Plains Borough,1423,Morris Plains Borough,1423,Borough of Morris Plains,885308,3402748210
Morris County,Morris Township,Morris Township,1422,Morris Township,1422,Township of Morris,882193,3402748090
Morris County,Morristown,Morristown Town,1424,Morristown Town,1424,Town of Morristown,885309,3402748300
Morris County,Mount Arlington Borough,Mount Arlington Borough,1426,Mount Arlington Borough,1426,Borough of Mount Arlington,885312,3402748690
Morris County,Mount Olive Township,Mount Olive Township,1427,Mount Olive Township,1427,Township of Mount Olive,882197,3402749080
Morris County,Mountain Lakes Borough,Mountain Lakes Borough,1425,Mountain Lakes Borough,1425,Borough of Mountain Lakes,885310,3402748480
Morris County,Netcong Borough,Netcong Borough,1428,Netcong Borough,1428,Borough of Netcong,885316,3402750130
Morris County,Parsippany-Troy Hills Township,Parsippany-Troy Hills Township,1429,Parsippany-Troy Hills Township,1429,Township of Parsippany-Troy Hills,882206,3402756460
Morris County,Pequannock Township,Pequannock Township,1431,Pequannock Township,1431,Township of Pequannock,882208,3402758110
Morris County,Randolph Township,Randolph Township,1432,Randolph Township,1432,Township of Randolph,882201,3402761890
Morris County,Riverdale Borough,Riverdale Borough,1433,Riverdale Borough,1433,Borough of Riverdale,885371,3402763300
Morris County,Rockaway Borough,Rockaway Borough,1434,Rockaway Borough,1434,Borough of Rockaway,885374,3402764050
Morris County,Rockaway Township,Rockaway Township,1435,Rockaway Township,1435,Township of Rockaway,882209,3402764080
Morris County,Roxbury Township,Roxbury Township,1436,Roxbury Township,1436,Township of Roxbury,882203,3402764980
Morris County,Victory Gardens Borough,Victory Gardens Borough,1437,Victory Gardens Borough,1437,Borough of Victory Gardens,885427,3402775890
Morris County,Washington Township,Washington Township,1438,Washington Township,1438,Township of Washington,882198,3402777240
Morris County,Wharton Borough,Wharton Borough,1439,Wharton Borough,1439,Borough of Wharton,885443,3402780390
Ocean County,Barnegat Light Borough,Barnegat Light Borough,1502,Barnegat Light Borough,1501,Borough of Barnegat Light,885148,3402903130
Ocean County,Barnegat Township,Barnegat Township,1501,Barnegat Township,1533,Township of Barnegat,882070,3402903050
Ocean County,Bay Head Borough,Bay Head Borough,1503,Bay Head Borough,1502,Borough of Bay Head,885150,3402903520
Ocean County,Beach Haven Borough,Beach Haven Borough,1504,Beach Haven Borough,1503,Borough of Beach Haven,885152,3402903940
Ocean County,Beachwood Borough,Beachwood Borough,1505,Beachwood Borough,1504,Borough of Beachwood,885153,3402904180
Ocean County,Berkeley Township,Berkeley Township,1506,Berkeley Township,1505,Township of Berkeley,882073,3402905305
Ocean County,Brick Township,Brick Township,1507,Brick Township,1506,Township of Brick,882075,3402907420
Ocean County,Eagleswood Township,Eagleswood Township,1509,Eagleswood Township,1508,Township of Eagleswood,882068,3402918670
Ocean County,Harvey Cedars Borough,Harvey Cedars Borough,1510,Harvey Cedars Borough,1509,Borough of Harvey Cedars,885246,3402930390
Ocean County,Island Heights Borough,Island Heights Borough,1511,Island Heights Borough,1510,Borough of Island Heights,885262,3402934530
Ocean County,Jackson Township,Jackson Township,1512,Jackson Township,1511,Township of Jackson,882079,3402934680
Ocean County,Lacey Township,Lacey Township,1513,Lacey Township,1512,Township of Lacey,882072,3402937380
Ocean County,Lakehurst Borough,Lakehurst Borough,1514,Lakehurst Borough,1513,Borough of Lakehurst,885270,3402937770
Ocean County,Lakewood Township,Lakewood Township,1515,Lakewood Township,1514,Township of Lakewood,882076,3402938550
Ocean County,Lavallette Borough,Lavallette Borough,1516,Lavallette Borough,1515,Borough of Lavallette,885273,3402939390
Ocean County,Little Egg Harbor Township,Little Egg Harbor Township,1517,Little Egg Harbor Township,1516,Township of Little Egg Harbor,882067,3402940560
Ocean County,Long Beach Township,Long Beach Township,1518,Long Beach Township,1517,Township of Long Beach,882066,3402941250
Ocean County,Manchester Township,Manchester Township,1519,Manchester Township,1518,Township of Manchester,882077,3402943140
Ocean County,Mantoloking Borough,Mantoloking Borough,1520,Mantoloking Borough,1519,Borough of Mantoloking,885290,3402943380
Ocean County,Ocean Gate Borough,Ocean Gate Borough,1522,Ocean Gate Borough,1521,Borough of Ocean Gate,885333,3402954450
Ocean County,Ocean Township,Ocean Township,1521,Ocean Township,1520,Township of Ocean,882071,3402954300
Ocean County,Pine Beach Borough,Pine Beach Borough,1523,Pine Beach Borough,1522,Borough of Pine Beach,885351,3402958590
Ocean County,Plumsted Township,Plumsted Township,1524,Plumsted Township,1523,Township of Plumsted,882078,3402959790
Ocean County,Point Pleasant Beach Borough,Point Pleasant Beach Borough,1526,Point Pleasant Beach Borough,1525,Borough of Point Pleasant Beach,885358,3402959910
Ocean County,Point Pleasant Borough,Point Pleasant Borough,1525,Point Pleasant Borough,1524,Borough of Point Pleasant,885357,3402959880
Ocean County,Seaside Heights Borough,Seaside Heights Borough,1527,Seaside Heights Borough,1526,Borough of Seaside Heights,885390,3402966450
Ocean County,Seaside Park Borough,Seaside Park Borough,1528,Seaside Park Borough,1527,Borough of Seaside Park,885391,3402966480
Ocean County,Ship Bottom Borough,Ship Bottom Borough,1529,Ship Bottom Borough,1528,Borough of Ship Bottom,885394,3402967110
Ocean County,South Toms River Borough,South Toms River Borough,1530,South Toms River Borough,1529,Borough of South Toms River,885404,3402969510
Ocean County,Stafford Township,Stafford Township,1531,Stafford Township,1530,Township of Stafford,882069,3402970320
Ocean County,Surf City Borough,Surf City Borough,1532,Surf City Borough,1531,Borough of Surf City,885413,3402971640
Ocean County,Toms River Township,Toms River Township,1508,Toms River Township,1507,Township of Toms River,882074,3402973125
Ocean County,Tuckerton Borough,Tuckerton Borough,1533,Tuckerton Borough,1532,Borough of Tuckerton,885422,3402974210
Passaic County,Bloomingdale Borough,Bloomingdale Borough,1601,Bloomingdale Borough,1601,Borough of Bloomingdale,885161,3403106340
Passaic County,Clifton,Clifton City,1602,Clifton City,1602,City of Clifton,885188,3403113690
Passaic County,Haledon Borough,Haledon Borough,1603,Haledon Borough,1603,Borough of Haledon,885240,3403129070
Passaic County,Hawthorne Borough,Hawthorne Borough,1604,Hawthorne Borough,1604,Borough of Hawthorne,885249,3403130570
Passaic County,Little Falls Township,Little Falls Township,1605,Little Falls Township,1605,Township of Little Falls,882313,3403140620
Passaic County,North Haledon Borough,North Haledon Borough,1606,North Haledon Borough,1606,Borough of North Haledon,885325,3403153040
Passaic County,Passaic,Passaic City,1607,Passaic City,1607,City of Passaic,885342,3403156550
Passaic County,Paterson,Paterson City,1608,Paterson City,1608,City of Paterson,885343,3403157000
Passaic County,Pompton Lakes Borough,Pompton Lakes Borough,1609,Pompton Lakes Borough,1609,Borough of Pompton Lakes,885359,3403160090
Passaic County,Prospect Park Borough,Prospect Park Borough,1610,Prospect Park Borough,1610,Borough of Prospect Park,885362,3403161170
Passaic County,Ringwood Borough,Ringwood Borough,1611,Ringwood Borough,1611,Borough of Ringwood,885370,3403163150
Passaic County,Totowa Borough,Totowa Borough,1612,Totowa Borough,1612,Borough of Totowa,885420,3403173140
Passaic County,Wanaque Borough,Wanaque Borough,1613,Wanaque Borough,1613,Borough of Wanaque,885431,3403176730
Passaic County,Wayne Township,Wayne Township,1614,Wayne Township,1614,Township of Wayne,882314,3403177840
Passaic County,West Milford Township,West Milford Township,1615,West Milford Township,1615,Township of West Milford,882315,3403179460
Passaic County,Woodland Park Borough,Woodland Park Borough,1616,Woodland Park Borough,1616,Borough of Woodland Park,885439,3403182423
Salem County,Alloway Township,Alloway Township,1701,Alloway Township,1701,Township of Alloway,882131,3403300880
Salem County,Carneys Point Township,Carneys Point Township,1702,Carneys Point Township,1713,Township of Carneys Point,882135,3403310610
Salem County,Elmer Borough,Elmer Borough,1703,Elmer Borough,1702,Borough of Elmer,885206,3403321240
Salem County,Elsinboro Township,Elsinboro Township,1704,Elsinboro Township,1703,Township of Elsinboro,882064,3403321330
Salem County,Lower Alloways Creek Township,Lower Alloways Creek Township,1705,Lower Alloways Creek Township,1704,Township of Lower Alloways Creek,882065,3403341640
Salem County,Mannington Township,Mannington Township,1706,Mannington Township,1705,Township of Mannington,882133,3403343200
Salem County,Oldmans Township,Oldmans Township,1707,Oldmans Township,1706,Township of Oldmans,882136,3403354810
Salem County,Penns Grove Borough,Penns Grove Borough,1708,Penns Grove Borough,1707,Borough of Penns Grove,885348,3403357750
Salem County,Pennsville Township,Pennsville Township,1709,Pennsville Township,1708,Township of Pennsville,882134,3403357870
Sussex County,Green Township,Green Township,1908,Green Township,1908,Township of Green,882264,3403727420
Salem County,Pilesgrove Township,Pilesgrove Township,1710,Pilesgrove Township,1709,Township of Pilesgrove,882132,3403358530
Salem County,Pittsgrove Township,Pittsgrove Township,1711,Pittsgrove Township,1710,Township of Pittsgrove,1729723,3403359130
Salem County,Quinton Township,Quinton Township,1712,Quinton Township,1711,Township of Quinton,882130,3403361470
Salem County,Salem,Salem City,1713,Salem City,1712,City of Salem,885385,3403365490
Salem County,Upper Pittsgrove Township,Upper Pittsgrove Township,1714,Upper Pittsgrove Township,1714,Township of Upper Pittsgrove,1723212,3403375110
Salem County,Woodstown Borough,Woodstown Borough,1715,Woodstown Borough,1715,Borough of Woodstown,885452,3403382720
Somerset County,Bedminster Township,Bedminster Township,1801,Bedminster Township,1801,Township of Bedminster,882176,3403504450
Somerset County,Bernards Township,Bernards Township,1802,Bernards Township,1802,Township of Bernards,882174,3403505560
Somerset County,Bernardsville Borough,Bernardsville Borough,1803,Bernardsville Borough,1803,Borough of Bernardsville,885159,3403505590
Somerset County,Bound Brook Borough,Bound Brook Borough,1804,Bound Brook Borough,1804,Borough of Bound Brook,885166,3403506790
Somerset County,Branchburg Township,Branchburg Township,1805,Branchburg Township,1805,Township of Branchburg,882175,3403507180
Somerset County,Bridgewater Township,Bridgewater Township,1806,Bridgewater Township,1806,Township of Bridgewater,882171,3403507720
Somerset County,Far Hills Borough,Far Hills Borough,1807,Far Hills Borough,1807,Borough of Far Hills,885217,3403522890
Somerset County,Franklin Township,Franklin Township,1808,Franklin Township,1808,Township of Franklin,882170,3403524900
Somerset County,Green Brook Township,Green Brook Township,1809,Green Brook Township,1809,Township of Green Brook,882172,3403527510
Somerset County,Hillsborough Township,Hillsborough Township,1810,Hillsborough Township,1810,Township of Hillsborough,882169,3403531890
Somerset County,Manville Borough,Manville Borough,1811,Manville Borough,1811,Borough of Manville,885291,3403543620
Somerset County,Millstone Borough,Millstone Borough,1812,Millstone Borough,1812,Borough of Millstone,885302,3403546590
Somerset County,Montgomery Township,Montgomery Township,1813,Montgomery Township,1813,Township of Montgomery,882168,3403547580
Somerset County,North Plainfield Borough,North Plainfield Borough,1814,North Plainfield Borough,1814,Borough of North Plainfield,885326,3403553280
Somerset County,Peapack-Gladstone Borough,Peapack-Gladstone Borough,1815,Peapack and Gladstone Borough,1815,Borough of Peapack and Gladstone,885345,3403557300
Somerset County,Raritan Borough,Raritan Borough,1816,Raritan Borough,1816,Borough of Raritan,885365,3403561980
Somerset County,Rocky Hill Borough,Rocky Hill Borough,1817,Rocky Hill Borough,1817,Borough of Rocky Hill,885376,3403564320
Somerset County,Somerville Borough,Somerville Borough,1818,Somerville Borough,1818,Borough of Somerville,885398,3403568460
Somerset County,South Bound Brook Borough,South Bound Brook Borough,1819,South Bound Brook Borough,1819,Borough of South Bound Brook,885401,3403568730
Somerset County,Warren Township,Warren Township,1820,Warren Township,1820,Township of Warren,882173,3403576940
Somerset County,Watchung Borough,Watchung Borough,1821,Watchung Borough,1821,Borough of Watchung,885433,3403577600
Sussex County,Andover Borough,Andover Borough,1901,Andover Borough,1901,Borough of Andover,885140,3403701330
Sussex County,Andover Township,Andover Township,1902,Andover Township,1902,Township of Andover,882266,3403701360
Sussex County,Branchville Borough,Branchville Borough,1903,Branchville Borough,1903,Borough of Branchville,885168,3403707300
Sussex County,Byram Township,Byram Township,1904,Byram Township,1904,Township of Byram,882263,3403709160
Sussex County,Frankford Township,Frankford Township,1905,Frankford Township,1905,Township of Frankford,882267,3403724810
Sussex County,Franklin Borough,Franklin Borough,1906,Franklin Borough,1906,Borough of Franklin,885224,3403724930
Sussex County,Hamburg Borough,Hamburg Borough,1909,Hamburg Borough,1909,Borough of Hamburg,885241,3403729220
Sussex County,Hampton Township,Hampton Township,1910,Hampton Township,1910,Township of Hampton,882261,3403729490
Sussex County,Hardyston Township,Hardyston Township,1911,Hardyston Township,1911,Township of Hardyston,882269,3403729850
Sussex County,Hopatcong Borough,Hopatcong Borough,1912,Hopatcong Borough,1912,Borough of Hopatcong,885259,3403732910
Sussex County,Lafayette Township,Lafayette Township,1913,Lafayette Township,1913,Township of Lafayette,882260,3403737440
Sussex County,Montague Township,Montague Township,1914,Montague Township,1914,Township of Montague,882256,3403747430
Sussex County,Newton,Newton Town,1915,Newton Town,1915,Town of Newton,885322,3403751930
Sussex County,Ogdensburg Borough,Ogdensburg Borough,1916,Ogdensburg Borough,1916,Borough of Ogdensburg,885335,3403754660
Sussex County,Sandyston Township,Sandyston Township,1917,Sandyston Township,1917,Township of Sandyston,882255,3403765700
Sussex County,Sparta Township,Sparta Township,1918,Sparta Township,1918,Township of Sparta,882265,3403769690
Sussex County,Stanhope Borough,Stanhope Borough,1919,Stanhope Borough,1919,Borough of Stanhope,885408,3403770380
Sussex County,Stillwater Township,Stillwater Township,1920,Stillwater Township,1920,Township of Stillwater,882262,3403770890
Sussex County,Sussex Borough,Sussex Borough,1921,Sussex Borough,1921,Borough of Sussex,885414,3403771670
Sussex County,Vernon Township,Vernon Township,1922,Vernon Township,1922,Township of Vernon,882258,3403775740
Sussex County,Walpack Township,Walpack Township,1923,Walpack Township,1923,Township of Walpack,882259,3403776640
Sussex County,Wantage Township,Wantage Township,1924,Wantage Township,1924,Township of Wantage,882257,3403776790
Union County,Berkeley Heights Township,Berkeley Heights Township,2001,Berkeley Heights Township,2001,Township of Berkeley Heights,882218,3403905320
Union County,Clark Township,Clark Township,2002,Clark Township,2002,Township of Clark,882216,3403913150
Union County,Cranford Township,Cranford Township,2003,Cranford Township,2003,Township of Cranford,882214,3403915640
Union County,Elizabeth,Elizabeth City,2004,Elizabeth City,2004,City of Elizabeth,885205,3403921000
Union County,Fanwood Borough,Fanwood Borough,2005,Fanwood Borough,2005,Borough of Fanwood,885216,3403922860
Union County,Garwood Borough,Garwood Borough,2006,Garwood Borough,2006,Borough of Garwood,885229,3403925800
Union County,Hillside Township,Hillside Township,2007,Hillside Township,2007,Township of Hillside,882211,3403931980
Union County,Kenilworth Borough,Kenilworth Borough,2008,Kenilworth Borough,2008,Borough of Kenilworth,885267,3403936690
Union County,Linden,Linden City,2009,Linden City,2009,City of Linden,885278,3403940350
Union County,Mountainside Borough,Mountainside Borough,2010,Mountainside Borough,2010,Borough of Mountainside,885311,3403948510
Union County,New Providence Borough,New Providence Borough,2011,New Providence Borough,2011,Borough of New Providence,885321,3403951810
Union County,Plainfield,Plainfield City,2012,Plainfield City,2012,City of Plainfield,885355,3403959190
Union County,Rahway,Rahway City,2013,Rahway City,2013,City of Rahway,885363,3403961530
Union County,Roselle Borough,Roselle Borough,2014,Roselle Borough,2014,Borough of Roselle,885379,3403964620
Union County,Roselle Park Borough,Roselle Park Borough,2015,Roselle Park Borough,2015,Borough of Roselle Park,885380,3403964650
Union County,Scotch Plains Township,Scotch Plains Township,2016,Scotch Plains Township,2016,Township of Scotch Plains,882217,3403966060
Union County,Springfield Township,Springfield Township,2017,Springfield Township,2017,Township of Springfield,882213,3403970020
Union County,Summit,Summit City,2018,Summit City,2018,City of Summit,885412,3403971430
Union County,Union Township,Union Township,2019,Union Township,2019,Township of Union,882212,3403974480
Union County,Westfield,Westfield Town,2020,Westfield Town,2020,Town of Westfield,885436,3403979040
Union County,Winfield Township,Winfield Township,2021,Winfield Township,2021,Township of Winfield,882215,3403981650
Warren County,Allamuchy Township,Allamuchy Township,2101,Allamuchy Township,2101,Township of Allamuchy,882243,3404100670
Warren County,Alpha Borough,Alpha Borough,2102,Alpha Borough,2102,Borough of Alpha,885138,3404101030
Warren County,Belvidere,Belvidere Town,2103,Belvidere Town,2103,Town of Belvidere,885156,3404104990
Warren County,Blairstown Township,Blairstown Township,2104,Blairstown Township,2104,Township of Blairstown,882317,3404106160
Warren County,Franklin Township,Franklin Township,2105,Franklin Township,2105,Township of Franklin,882251,3404124960
Warren County,Frelinghuysen Township,Frelinghuysen Township,2106,Frelinghuysen Township,2106,Township of Frelinghuysen,882240,3404125320
Warren County,Greenwich Township,Greenwich Township,2107,Greenwich Township,2107,Township of Greenwich,882253,3404128260
Warren County,Hackettstown,Hackettstown Town,2108,Hackettstown Town,2108,Town of Hackettstown,885237,3404128710
Warren County,Hardwick Township,Hardwick Township,2109,Hardwick Township,2109,Township of Hardwick,882239,3404129820
Warren County,Harmony Township,Harmony Township,2110,Harmony Township,2110,Township of Harmony,882248,3404130090
Warren County,Hope Township,Hope Township,2111,Hope Township,2111,Township of Hope,882242,3404133060
Warren County,Independence Township,Independence Township,2112,Independence Township,2112,Township of Independence,882244,3404133930
Warren County,Knowlton Township,Knowlton Township,2113,Knowlton Township,2113,Township of Knowlton,882241,3404137320
Warren County,Liberty Township,Liberty Township,2114,Liberty Township,2114,Township of Liberty,882245,3404140110
Warren County,Lopatcong Township,Lopatcong Township,2115,Lopatcong Township,2115,Township of Lopatcong,882252,3404141490
Warren County,Mansfield Township,Mansfield Township,2116,Mansfield Township,2116,Township of Mansfield,882249,3404143320
Warren County,Oxford Township,Oxford Township,2117,Oxford Township,2117,Township of Oxford,882247,3404155530
Warren County,Phillipsburg,Phillipsburg Town,2119,Phillipsburg Town,2119,Town of Phillipsburg,885350,3404158350
Warren County,Pohatcong Township,Pohatcong Township,2120,Pohatcong Township,2120,Township of Pohatcong,882254,3404159820
Warren County,Washington Borough,Washington Borough,2121,Washington Borough,2121,Borough of Washington,885432,3404177270
Warren County,Washington Township,Washington Township,2122,Washington Township,2122,Township of Washington,882250,3404177300
Warren County,White Township,White Township,2123,White Township,2123,Township of White,882246,3404180570
